LIZZIESAT-2 (LS-2)      
1 62383U 24247G   26068.49140277  .00009388  00000+0  34517-3 0  9997
2 62383  44.9909 117.0823 0004092 327.5136  32.5495 15.28222796 67716
STARLINK-33791          
1 63594U 25076AB  26068.39903251  .00036701  00000+0  13369-2 0  9991
2 63594  42.9965 323.5303 0000535  14.5372 345.5495 15.27573239 51788
